[{"OBJECT_NAME":"STARLINK-30925","OBJECT_ID":"2023-180E","EPOCH":"2026-03-08T09:03:26.187552","MEAN_MOTION":15.27588974,"ECCENTRICITY":0.00013472,"INCLINATION":43.0035,"RA_OF_ASC_NODE":60.1034,"ARG_OF_PERICENTER":257.0086,"MEAN_ANOMALY":103.0615,"EPHEMERIS_TYPE":0,"CLASSIFICATION_TYPE":"U","NORAD_CAT_ID":58406,"ELEMENT_SET_NO":999,"REV_AT_EPOCH":12730,"BSTAR":8.5748329e-5,"MEAN_MOTION_DOT":2.099e-5,"MEAN_MOTION_DDOT":0},{"OBJECT_NAME":"OBJECT C","OBJECT_ID":"2024-092C","EPOCH":"2026-03-09T23:10:26.961312","MEAN_MOTION":15.27308901,"ECCENTRICITY":0.00097974,"INCLINATION":97.6475,"RA_OF_ASC_NODE":197.1606,"ARG_OF_PERICENTER":169.1353,"MEAN_ANOMALY":191.0098,"EPHEMERIS_TYPE":0,"CLASSIFICATION_TYPE":"U","NORAD_CAT_ID":59775,"ELEMENT_SET_NO":999,"REV_AT_EPOCH":10042,"BSTAR":0.00057925748,"MEAN_MOTION_DOT":0.00015454,"MEAN_MOTION_DDOT":0}]
